0 STARLINK-73222
1 73222U 73222A   23243.03489024  00017716  00000-0  12052-2 0  9998
2 73222  48.0000 280.9756 0010000 100.0000 136.5517 15.75865412345
0 STARLINK-73223
1 73223U 73223A   23243.03489024  00017716  00000-0  12052-2 0  9998
2 73223  48.0000 280.9756 0010000 100.0000 142.7586 15.75865412345
0 STARLINK-73224
1 73224U 73224A   23243.03489024  00017716  00000-0  12052-2 0  9998
2 73224  48.0000 280.9756 0010000 100.0000 148.9655 15.75865412345
0 STARLINK-73225
1 73225U 73225A   23243.03489024  00017716  00000-0  12052-2 0  9998
2 73225  48.0000 280.9756 0010000 100.0000 155.1724 15.75865412345
0 STARLINK-73226
1 73226U 73226A   23243.03489024  00017716  00000-0  12052-2 0  9998
2 73226  48.0000 280.9756 0010000 100.0000 161.3793 15.75865412345
0 STARLINK-73227
1 73227U 73227A   23243.03489024  00017716  00000-0  12052-2 0  9998
2 73227  48.0000 280.9756 0010000 100.0000 167.5862 15.75865412345
0 STARLINK-73228
1 73228U 73228A   23243.03489024  00017716  00000-0  12052-2 0  9998
2 73228  48.0000 280.9756 0010000 100.0000 173.7931 15.75865412345
0 STARLINK-73229
1 73229U 73229A   23243.03489024  00017716  00000-0  12052-2 0  9998
2 73229  48.0000 280.9756 0010000 100.0000 180.0000 15.75865412345
0 STARLINK-73230
1 73230U 73230A   23243.03489024  00017716  00000-0  12052-2 0  9998
2 73230  48.0000 280.9756 0010000 100.0000 186.2069 15.75865412345
0 STARLINK-73231
1 73231U 73231A   23243.03489024  00017716  00000-0  12052-2 0  9998
2 73231  48.0000 280.9756 0010000 100.0000 192.4138 15.75865412345
0 STARLINK-73232
1 73232U 73232A   23243.03489024  00017716  00000-0  12052-2 0  9998
2 73232  48.0000 280.9756 0010000 100.0000 198.6207 15.75865412345
0 STARLINK-73233
1 73233U 73233A   23243.03489024  00017716  00000-0  12052-2 0  9998
2 73233  48.0000 280.9756 0010000 100.0000 204.8276 15.75865412345
0 STARLINK-73234
1 73234U 73234A   23243.03489024  00017716  00000-0  12052-2 0  9998
2 73234  48.0000 280.9756 0010000 100.0000 211.0345 15.75865412345
0 STARLINK-73235
1 73235U 73235A   23243.03489024  00017716  00000-0  12052-2 0  9998
2 73235  48.0000 280.9756 0010000 100.0000 217.2414 15.75865412345
0 STARLINK-73236
1 73236U 73236A   23243.03489024  00017716  00000-0  12052-2 0  9998
2 73236  48.0000 280.9756 0010000 100.0000 223.4483 15.75865412345
0 STARLINK-73237
1 73237U 73237A   23243.03489024  00017716  00000-0  12052-2 0  9998
2 73237  48.0000 280.9756 0010000 100.0000 229.6552 15.75865412345
0 STARLINK-73238
1 73238U 73238A   23243.03489024  00017716  00000-0  12052-2 0  9998
2 73238  48.0000 280.9756 0010000 100.0000 235.8621 15.75865412345
0 STARLINK-73239
1 73239U 73239A   23243.03489024  00017716  00000-0  12052-2 0  9998
2 73239  48.0000 280.9756 0010000 100.0000 242.0690 15.75865412345
0 STARLINK-73240
1 73240U 73240A   23243.03489024  00017716  00000-0  12052-2 0  9998
2 73240  48.0000 280.9756 0010000 100.0000 248.2759 15.75865412345
0 STARLINK-73241
1 73241U 73241A   23243.03489024  00017716  00000-0  12052-2 0  9998
2 73241  48.0000 280.9756 0010000 100.0000 254.4828 15.75865412345
0 STARLINK-73242
1 73242U 73242A   23243.03489024  00017716  00000-0  12052-2 0  9998
2 73242  48.0000 280.9756 0010000 100.0000 260.6897 15.75865412345
0 STARLINK-73243
1 73243U 73243A   23243.03489024  00017716  00000-0  12052-2 0  9998
2 73243  48.0000 280.9756 0010000 100.0000 266.8966 15.75865412345
0 STARLINK-73244
1 73244U 73244A   23243.03489024  00017716  00000-0  12052-2 0  9998
2 73244  48.0000 280.9756 0010000 100.0000 273.1034 15.75865412345
0 STARLINK-73245
1 73245U 73245A   23243.03489024  00017716  00000-0  12052-2 0  9998
2 73245  48.0000 280.9756 0010000 100.0000 279.3103 15.75865412345
0 STARLINK-73246
1 73246U 73246A   23243.03489024  00017716  00000-0  12052-2 0  9998
2 73246  48.0000 280.9756 0010000 100.0000 285.5172 15.75865412345
0 STARLINK-73247
1 73247U 73247A   23243.03489024  00017716  00000-0  12052-2 0  9998
2 73247  48.0000 280.9756 0010000 100.0000 291.7241 15.75865412345
0 STARLINK-73248
1 73248U 73248A   23243.03489024  00017716  00000-0  12052-2 0  9998
2 73248  48.0000 280.9756 0010000 100.0000 297.9310 15.75865412345
0 STARLINK-73249
1 73249U 73249A   23243.03489024  00017716  00000-0  12052-2 0  9998
2 73249  48.0000 280.9756 0010000 100.0000 304.1379 15.75865412345
0 STARLINK-73250
1 73250U 73250A   23243.03489024  00017716  00000-0  12052-2 0  9998
2 73250  48.0000 280.9756 0010000 100.0000 310.3448 15.75865412345
0 STARLINK-73251
1 73251U 73251A   23243.03489024  00017716  00000-0  12052-2 0  9998
2 73251  48.0000 280.9756 0010000 100.0000 316.5517 15.75865412345
0 STARLINK-73252
1 73252U 73252A   23243.03489024  00017716  00000-0  12052-2 0  9998
2 73252  48.0000 280.9756 0010000 100.0000 322.7586 15.75865412345
0 STARLINK-73253
1 73253U 73253A   23243.03489024  00017716  00000-0  12052-2 0  9998
2 73253  48.0000 280.9756 0010000 100.0000 328.9655 15.75865412345
0 STARLINK-73254
1 73254U 73254A   23243.03489024  00017716  00000-0  12052-2 0  9998
2 73254  48.0000 280.9756 0010000 100.0000 335.1724 15.75865412345
0 STARLINK-73255
1 73255U 73255A   23243.03489024  00017716  00000-0  12052-2 0  9998
2 73255  48.0000 280.9756 0010000 100.0000 341.3793 15.75865412345
0 STARLINK-73256
1 73256U 73256A   23243.03489024  00017716  00000-0  12052-2 0  9998
2 73256  48.0000 280.9756 0010000 100.0000 347.5862 15.75865412345
0 STARLINK-73257
1 73257U 73257A   23243.03489024  00017716  00000-0  12052-2 0  9998
2 73257  48.0000 280.9756 0010000 100.0000 353.7931 15.75865412345
0 STARLINK-73258
1 73258U 73258A   23243.03489024  00017716  00000-0  12052-2 0  9998
2 73258  48.0000 280.9756 0010000 100.0000 360.0000 15.75865412345
0 STARLINK-7330
1 73300U 73300A   23243.03489024  00017716  00000-0  12052-2 0  9998
2 73300  48.0000 289.7561 0010000 100.0000   0.0000 15.75865412345
0 STARLINK-7331
1 73301U 73301A   23243.03489024  00017716  00000-0  12052-2 0  9998
2 73301  48.0000 289.7561 0010000 100.0000   6.2069 15.75865412345
0 STARLINK-7332
1 73302U 73302A   23243.03489024  00017716  00000-0  12052-2 0  9998
2 73302  48.0000 289.7561 0010000 100.0000  12.4138 15.75865412345
0 STARLINK-7333
1 73303U 73303A   23243.03489024  00017716  00000-0  12052-2 0  9998
2 73303  48.0000 289.7561 0010000 100.0000  18.6207 15.75865412345
0 STARLINK-7334
1 73304U 73304A   23243.03489024  00017716  00000-0  12052-2 0  9998
2 73304  48.0000 289.7561 0010000 100.0000  24.8276 15.75865412345
0 STARLINK-7335
1 73305U 73305A   23243.03489024  00017716  00000-0  12052-2 0  9998
2 73305  48.0000 289.7561 0010000 100.0000  31.0345 15.75865412345
0 STARLINK-7336
1 73306U 73306A   23243.03489024  00017716  00000-0  12052-2 0  9998
2 73306  48.0000 289.7561 0010000 100.0000  37.2414 15.75865412345
0 STARLINK-7337
1 73307U 73307A   23243.03489024  00017716  00000-0  12052-2 0  9998
2 73307  48.0000 289.7561 0010000 100.0000  43.4483 15.75865412345
0 STARLINK-7338
1 73308U 73308A   23243.03489024  00017716  00000-0  12052-2 0  9998
2 73308  48.0000 289.7561 0010000 100.0000  49.6552 15.75865412345
0 STARLINK-7339
1 73309U 73309A   23243.03489024  00017716  00000-0  12052-2 0  9998
2 73309  48.0000 289.7561 0010000 100.0000  55.8621 15.75865412345
0 STARLINK-73310
1 73310U 73310A   23243.03489024  00017716  00000-0  12052-2 0  9998
2 73310  48.0000 289.7561 0010000 100.0000  62.0690 15.75865412345
0 STARLINK-73311
1 73311U 73311A   23243.03489024  00017716  00000-0  12052-2 0  9998
2 73311  48.0000 289.7561 0010000 100.0000  68.2759 15.75865412345
0 STARLINK-73312
1 73312U 73312A   23243.03489024  00017716  00000-0  12052-2 0  9998
2 73312  48.0000 289.7561 0010000 100.0000  74.4828 15.75865412345
0 STARLINK-73313
1 73313U 73313A   23243.03489024  00017716  00000-0  12052-2 0  9998
2 73313  48.0000 289.7561 0010000 100.0000  80.6897 15.75865412345
0 STARLINK-73314
1 73314U 73314A   23243.03489024  00017716  00000-0  12052-2 0  9998
2 73314  48.0000 289.7561 0010000 100.0000  86.8966 15.75865412345
0 STARLINK-73315
1 73315U 73315A   23243.03489024  00017716  00000-0  12052-2 0  9998
2 73315  48.0000 289.7561 0010000 100.0000  93.1034 15.75865412345
0 STARLINK-73316
1 73316U 73316A   23243.03489024  00017716  00000-0  12052-2 0  9998
2 73316  48.0000 289.7561 0010000 100.0000  99.3103 15.75865412345
0 STARLINK-73317
1 73317U 73317A   23243.03489024  00017716  00000-0  12052-2 0  9998
2 73317  48.0000 289.7561 0010000 100.0000 105.5172 15.75865412345
0 STARLINK-73318
1 73318U 73318A   23243.03489024  00017716  00000-0  12052-2 0  9998
2 73318  48.0000 289.7561 0010000 100.0000 111.7241 15.75865412345
0 STARLINK-73319
1 73319U 73319A   23243.03489024  00017716  00000-0  12052-2 0  9998
2 73319  48.0000 289.7561 0010000 100.0000 117.9310 15.75865412345
0 STARLINK-73320
1 73320U 73320A   23243.03489024  00017716  00000-0  12052-2 0  9998
2 73320  48.0000 289.7561 0010000 100.0000 124.1379 15.75865412345
0 STARLINK-73321
1 73321U 73321A   23243.03489024  00017716  00000-0  12052-2 0  9998
2 73321  48.0000 289.7561 0010000 100.0000 130.3448 15.75865412345
0 STARLINK-73322
1 73322U 73322A   23243.03489024  00017716  00000-0  12052-2 0  9998
2 73322  48.0000 289.7561 0010000 100.0000 136.5517 15.75865412345
0 STARLINK-73323
1 73323U 73323A   23243.03489024  00017716  00000-0  12052-2 0  9998
2 73323  48.0000 289.7561 0010000 100.0000 142.7586 15.75865412345
0 STARLINK-73324
1 73324U 73324A   23243.03489024  00017716  00000-0  12052-2 0  9998
2 73324  48.0000 289.7561 0010000 100.0000 148.9655 15.75865412345
0 STARLINK-73325
1 73325U 73325A   23243.03489024  00017716  00000-0  12052-2 0  9998
2 73325  48.0000 289.7561 0010000 100.0000 155.1724 15.75865412345
0 STARLINK-73326
1 73326U 73326A   23243.03489024  00017716  00000-0  12052-2 0  9998
2 73326  48.0000 289.7561 0010000 100.0000 161.3793 15.75865412345
0 STARLINK-73327
1 73327U 73327A   23243.03489024  00017716  00000-0  12052-2 0  9998
2 73327  48.0000 289.7561 0010000 100.0000 167.5862 15.75865412345
